[{"OBJECT_NAME":"STARLINK-32774","OBJECT_ID":"2025-014C","EPOCH":"2026-03-09T07:41:39.741504","MEAN_MOTION":15.27599235,"ECCENTRICITY":0.00028234,"INCLINATION":43.0002,"RA_OF_ASC_NODE":159.7013,"ARG_OF_PERICENTER":289.4482,"MEAN_ANOMALY":70.6064,"EPHEMERIS_TYPE":0,"CLASSIFICATION_TYPE":"U","NORAD_CAT_ID":62737,"ELEMENT_SET_NO":999,"REV_AT_EPOCH":6316,"BSTAR":0.0013263468,"MEAN_MOTION_DOT":0.0003644,"MEAN_MOTION_DDOT":0},{"OBJECT_NAME":"CZ-6A DEB","OBJECT_ID":"2024-140ABG","EPOCH":"2026-03-09T16:43:29.524800","MEAN_MOTION":15.18896608,"ECCENTRICITY":0.00616087,"INCLINATION":89.2171,"RA_OF_ASC_NODE":295.9508,"ARG_OF_PERICENTER":79.2706,"MEAN_ANOMALY":281.5467,"EPHEMERIS_TYPE":0,"CLASSIFICATION_TYPE":"U","NORAD_CAT_ID":61498,"ELEMENT_SET_NO":999,"REV_AT_EPOCH":8006,"BSTAR":0.0048163661,"MEAN_MOTION_DOT":0.0010689,"MEAN_MOTION_DDOT":0}]
